NORAD_CAT_ID,OBJECT_NAME,OBJECT_TYPE,EPOCH,MEAN_MOTION,ECCENTRICITY,INCLINATION,RA_OF_ASC_NODE,ARG_OF_PERICENTER,MEAN_ANOMALY,BSTAR,MEAN_MOTION_DOT,MEAN_MOTION_DDOT,TLE_LINE0,TLE_LINE1,TLE_LINE2,SEMIMAJOR_AXIS,PERIOD,APOGEE,PERIGEE,DECAYED
53396.0,STARLINK-4524,PAYLOAD,2023-07-30 02:16:09,15.08846793,0.0001013,53.2166,84.9738,106.3338,253.7766,0.00023427,3.443e-05,0.0,0 STARLINK-4524,1 53396U 22097J   23211.09455378  .00003443  00000-0  23427-3 0  9991,2 53396  53.2166  84.9738 0001013 106.3338 253.7766 15.08846793 54061,6917.86,95.437,540.425,539.024,0.0
53396.0,STARLINK-4524,PAYLOAD,2023-07-30 14:59:14,15.08843437,0.0001213,53.2169,82.5955,96.3069,263.8061,8.88e-05,1.126e-05,0.0,0 STARLINK-4524,1 53396U 22097J   23211.62447590  .00001126  00000-0  88800-4 0  9990,2 53396  53.2169  82.5955 0001213  96.3069 263.8061 15.08843437 54141,6917.87,95.437,540.574,538.896,0.0
53396.0,STARLINK-4524,PAYLOAD,2023-08-01 01:57:43,15.08843068,0.0001023,53.2169,76.0513,89.9844,270.1265,0.00010001,1.304e-05,0.0,0 STARLINK-4524,1 53396U 22097J   23213.08175790  .00001304  00000-0  10001-3 0  9997,2 53396  53.2169  76.0513 0001023  89.9844 270.1265 15.08843068 54368,6917.871,95.437,540.444,539.028,0.0
53396.0,STARLINK-4524,PAYLOAD,2023-08-01 19:26:58,15.08839639,9.7e-05,53.2172,72.7821,68.2718,291.8377,8.7746e-05,1.109e-05,0.0,0 STARLINK-4524,1 53396U 22097J   23213.81040240  .00001109  00000-0  87746-4 0  9993,2 53396  53.2172  72.7821 0000970  68.2718 291.8377 15.08839639 54472,6917.881,95.438,540.418,539.075,0.0
53396.0,STARLINK-4524,PAYLOAD,2023-08-03 00:03:54,15.08856598,0.0001016,53.2162,67.4265,89.7524,270.3584,0.00037931,5.757e-05,0.0,0 STARLINK-4524,1 53396U 22097J   23215.00271448  .00005757  00000-0  37931-3 0  9995,2 53396  53.2162  67.4265 0001016  89.7524 270.3584 15.08856598 54654,6917.83,95.437,540.398,538.992,0.0
53396.0,STARLINK-4524,PAYLOAD,2023-08-03 19:08:32,15.0884391,0.000179,53.2168,63.8515,141.8718,218.2401,2.6068e-05,1.27e-06,0.0,0 STARLINK-4524,1 53396U 22097J   23215.79759673  .00000127  00000-0  26068-4 0  9998,2 53396  53.2168  63.8515 0001790 141.8718 218.2401 15.08843910 54778,6917.868,95.437,540.972,538.495,0.0
53396.0,STARLINK-4524,PAYLOAD,2023-08-04 22:10:05,15.08845351,9.89e-05,53.2168,58.8019,99.9795,260.1309,0.00015537,2.186e-05,0.0,0 STARLINK-4524,1 53396U 22097J   23216.92367885  .00002186  00000-0  15537-3 0  9999,2 53396  53.2168  58.8019 0000989  99.9795 260.1309 15.08845351 54941,6917.864,95.437,540.413,539.045,0.0
53396.0,STARLINK-4524,PAYLOAD,2023-08-05 22:00:51,15.08866146,0.0001508,53.2158,54.3389,138.0238,222.087,0.00052229,8.04e-05,0.0,0 STARLINK-4524,1 53396U 22097J   23217.91726568  .00008040  00000-0  52229-3 0  9990,2 53396  53.2158  54.3389 0001508 138.0238 222.0870 15.08866146 55098,6917.8,95.436,540.709,538.622,0.0
53396.0,STARLINK-4524,PAYLOAD,2023-08-06 05:57:48,15.08854572,0.0002016,53.2172,52.8544,78.9083,281.2136,0.00023076,3.388e-05,0.0,0 STARLINK-4524,1 53396U 22097J   23218.24847234  .00003388  00000-0  23076-3 0  9999,2 53396  53.2172  52.8544 0002016  78.9083 281.2136 15.08854572 55143,6917.836,95.437,541.095,538.306,0.0
53396.0,STARLINK-4524,PAYLOAD,2023-08-06 18:40:54,15.08808573,0.0001445,53.2173,50.4751,85.5685,274.5472,-0.00056935,-9.33e-05,0.0,0 STARLINK-4524,1 53396U 22097J   23218.77841140 -.00009330  00000-0 -56935-3 0  9992,2 53396  53.2173  50.4751 0001445  85.5685 274.5472 15.08808573 55222,6917.976,95.44,540.841,538.842,0.0
53396.0,STARLINK-4524,PAYLOAD,2023-08-07 05:48:37,15.0881778,0.0001277,53.217,48.3961,96.374,263.7398,-0.00020942,-3.617e-05,0.0,0 STARLINK-4524,1 53396U 22097J   23219.24209499 -.00003617  00000-0 -20942-3 0  9991,2 53396  53.2170  48.3961 0001277  96.3740 263.7398 15.08817780 55297,6917.948,95.439,540.697,538.93,0.0
53396.0,STARLINK-4524,PAYLOAD,2023-08-07 18:31:42,15.08832759,0.0001285,53.2165,46.0177,98.3866,261.7272,0.00033727,5.083e-05,0.0,0 STARLINK-4524,1 53396U 22097J   23219.77201919  .00005083  00000-0  33727-3 0  9990,2 53396  53.2165  46.0177 0001285  98.3866 261.7272 15.08832759 55376,6917.903,95.438,540.656,538.879,0.0
53396.0,STARLINK-4524,PAYLOAD,2023-08-08 05:39:24,15.08853192,0.0001417,53.2167,43.9363,90.8005,269.3149,0.001381,0.00021767,0.0,0 STARLINK-4524,1 53396U 22097J   23220.23570460  .00021767  00000-0  13810-2 0  9990,2 53396  53.2167  43.9363 0001417  90.8005 269.3149 15.08853192 55449,6917.84,95.437,540.685,538.725,0.0
53396.0,STARLINK-4524,PAYLOAD,2023-08-09 18:13:15,15.08867259,0.0002869,53.217,37.0978,95.0097,265.1222,0.0012169,0.00019147,0.0,0 STARLINK-4524,1 53396U 22097J   23221.75920905  .00019147  00000-0  12169-2 0  9996,2 53396  53.2170  37.0978 0002869  95.0097 265.1222 15.08867259 55679,6917.797,95.436,541.647,537.677,0.0
53396.0,STARLINK-4524,PAYLOAD,2023-08-09 19:48:38,15.08863889,0.000137,53.2169,36.8003,91.9152,268.1997,0.00067125,0.00010418,0.0,0 STARLINK-4524,1 53396U 22097J   23221.82544723  .00010418  00000-0  67125-3 0  9999,2 53396  53.2169  36.8003 0001370  91.9152 268.1997 15.08863889 55684,6917.807,95.436,540.62,538.725,0.0
53396.0,STARLINK-4524,PAYLOAD,2023-08-10 05:20:57,15.08843928,0.0001638,53.2168,35.0133,104.3726,255.7448,0.00032532,4.894e-05,0.0,0 STARLINK-4524,1 53396U 22097J   23222.22288881  .00004894  00000-0  32532-3 0  9999,2 53396  53.2168  35.0133 0001638 104.3726 255.7448 15.08843928 55743,6917.868,95.437,540.867,538.6,0.0
53396.0,STARLINK-4524,PAYLOAD,2023-08-11 17:54:49,15.08844256,0.0001353,53.2175,28.1748,95.0873,265.0274,8.1684e-05,1.012e-05,0.0,0 STARLINK-4524,1 53396U 22097J   23223.74640791  .00001012  00000-0  81684-4 0  9991,2 53396  53.2175  28.1748 0001353  95.0873 265.0274 15.08844256 55970,6917.867,95.437,540.668,538.796,0.0
53396.0,STARLINK-4524,PAYLOAD,2023-08-12 11:24:04,15.08837097,0.0001428,53.2164,24.9046,96.8988,263.2166,3.0806e-05,2.02e-06,0.0,0 STARLINK-4524,1 53396U 22097J   23224.47505159  .00000202  00000-0  30806-4 0  9990,2 53396  53.2164  24.9046 0001428  96.8988 263.2166 15.08837097 56080,6917.889,95.438,540.742,538.766,0.0
53396.0,STARLINK-4524,PAYLOAD,2023-08-12 17:45:36,15.08843469,0.0001398,53.2152,23.7165,94.9075,265.2077,0.000157,2.212e-05,0.0,0 STARLINK-4524,1 53396U 22097J   23224.74000851  .00002212  00000-0  15700-3 0  9997,2 53396  53.2152  23.7165 0001398  94.9075 265.2077 15.08843469 56126,6917.87,95.437,540.702,538.768,0.0
53396.0,STARLINK-4524,PAYLOAD,2023-08-13 09:39:28,15.08835434,0.0001339,53.2155,20.7438,92.5528,267.5618,2.7217e-05,1.45e-06,0.0,0 STARLINK-4524,1 53396U 22097J   23225.40241392  .00000145  00000-0  27217-4 0  9998,2 53396  53.2155  20.7438 0001339  92.5528 267.5618 15.08835434 56221,6917.894,95.438,540.686,538.833,0.0
53396.0,STARLINK-4524,PAYLOAD,2023-08-14 22:13:20,15.08847484,0.0001235,53.2187,13.9022,85.1275,274.9859,0.00011073,1.475e-05,0.0,0 STARLINK-4524,1 53396U 22097J   23226.92592997  .00001475  00000-0  11073-3 0  9995,2 53396  53.2187  13.9022 0001235  85.1275 274.9859 15.08847484 56453,6917.858,95.437,540.577,538.868,0.0
53396.0,STARLINK-4524,PAYLOAD,2023-08-15 12:31:48,15.0883958,0.0001127,53.2189,11.2265,89.1464,270.9657,0.00015089,2.114e-05,0.0,0 STARLINK-4524,1 53396U 22097J   23227.52209459  .00002114  00000-0  15089-3 0  9992,2 53396  53.2189  11.2265 0001127  89.1464 270.9657 15.08839580 56549,6917.882,95.438,540.526,538.967,0.0
53396.0,STARLINK-4524,PAYLOAD,2023-08-15 18:53:20,15.08852274,0.0001268,53.219,10.036,89.3168,270.7969,0.00017415,2.486e-05,0.0,0 STARLINK-4524,1 53396U 22097J   23227.78704651  .00002486  00000-0  17415-3 0  9991,2 53396  53.2190  10.0360 0001268  89.3168 270.7969 15.08852274 56586,6917.843,95.437,540.585,538.831,0.0
53396.0,STARLINK-4524,PAYLOAD,2023-08-16 09:11:49,15.08841477,0.0001492,53.2163,7.3611,85.0334,275.0829,9.8693e-05,1.283e-05,0.0,0 STARLINK-4524,1 53396U 22097J   23228.38321624  .00001283  00000-0  98693-4 0  9995,2 53396  53.2163   7.3611 0001492  85.0334 275.0829 15.08841477 56677,6917.876,95.437,540.773,538.709,0.0
53396.0,STARLINK-4524,PAYLOAD,2023-08-17 12:13:23,15.08842263,0.0001665,53.2171,2.3057,89.1106,271.0077,8.7644e-05,1.107e-05,0.0,0 STARLINK-4524,1 53396U 22097J   23229.50929559  .00001107  00000-0  87644-4 0  9990,2 53396  53.2171   2.3057 0001665  89.1106 271.0077 15.08842263 56843,6917.873,95.437,540.89,538.587,0.0
53396.0,STARLINK-4524,PAYLOAD,2023-08-18 08:53:24,15.08833626,0.000144,53.2173,358.4415,87.7395,272.3762,2.3001e-05,7.8e-07,0.0,0 STARLINK-4524,1 53396U 22097J   23230.37041937  .00000078  00000-0  23001-4 0  9995,2 53396  53.2173 358.4415 0001440  87.7395 272.3762 15.08833626 56975,6917.9,95.438,540.761,538.769,0.0
53396.0,STARLINK-4524,PAYLOAD,2023-08-19 11:54:57,15.08838031,0.0001239,53.2186,353.3863,89.8238,270.2896,9.8274e-05,1.276e-05,0.0,0 STARLINK-4524,1 53396U 22097J   23231.49649739  .00001276  00000-0  98274-4 0  9998,2 53396  53.2186 353.3863 0001239  89.8238 270.2896 15.08838031 57145,6917.886,95.438,540.609,538.894,0.0
53396.0,STARLINK-4524,PAYLOAD,2023-08-19 18:16:29,15.08843751,0.0001762,53.2177,352.1921,130.2306,229.884,0.00010072,1.315e-05,0.0,0 STARLINK-4524,1 53396U 22097J   23231.76145139  .00001315  00000-0  10072-3 0  9996,2 53396  53.2177 352.1921 0001762 130.2306 229.8840 15.08843751 57183,6917.869,95.437,540.953,538.515,0.0
53396.0,STARLINK-4524,PAYLOAD,2023-08-20 11:45:44,15.08834372,0.000119,53.2187,348.926,94.6657,265.4471,0.00012467,1.697e-05,0.0,0 STARLINK-4524,1 53396U 22097J   23232.49010114  .00001697  00000-0  12467-3 0  9994,2 53396  53.2187 348.9260 0001190  94.6657 265.4471 15.08834372 57297,6917.898,95.438,540.586,538.939,0.0
53396.0,STARLINK-4524,PAYLOAD,2023-08-21 14:47:17,15.08839464,0.0001432,53.217,343.8692,85.8637,274.2519,7.1483e-05,8.5e-06,0.0,0 STARLINK-4524,1 53396U 22097J   23233.61617877  .00000850  00000-0  71483-4 0  9992,2 53396  53.2170 343.8692 0001432  85.8637 274.2519 15.08839464 57468,6917.882,95.438,540.738,538.756,0.0
